[Satellite]
VERSION=1.1
NAME=STARLINK-4759
NICKNAME=STARLINK-4759
TLE1=1 53829U 22114M   22291.33334491  .00058546  00000+0  41965-3 0  9998
TLE2=2 53829  53.2145 113.8512 0001428  59.7700 279.9049 15.73144134  5180
STATUS=0
